STARLINK-1405_new
1 15702C 20035AX  21326.09738870  .00008026  00000-0  53781-3 0  3261
2 15702  53.0525 238.3050 0002009  72.9070   7.8300 15.06386267    10
STARLINK-1405_old
1 25702C 20035AX  21325.10191127  .00005506  00000-0  36906-3 0  3259
2 25702  53.0529 242.7736 0001926  72.4086   6.8783 15.06376912    13
